NORAD_CAT_ID,OBJECT_NAME,OBJECT_TYPE,EPOCH,MEAN_MOTION,ECCENTRICITY,INCLINATION,RA_OF_ASC_NODE,ARG_OF_PERICENTER,MEAN_ANOMALY,BSTAR,MEAN_MOTION_DOT,MEAN_MOTION_DDOT,TLE_LINE0,TLE_LINE1,TLE_LINE2,SEMIMAJOR_AXIS,PERIOD,APOGEE,PERIGEE,DECAYED
51884.0,STARLINK-3577,PAYLOAD,2024-04-02 22:09:11,15.08836705,0.0001351,53.2174,287.4283,93.3399,266.7748,8.6015e-05,1.081e-05,0.0,0 STARLINK-3577,1 51884U 22022AJ  24093.92305107  .00001081  00000-0  86015-4 0  9993,2 51884  53.2174 287.4283 0001351  93.3399 266.7748 15.08836705116786,6917.89,95.438,540.69,538.821,0.0
51884.0,STARLINK-3577,PAYLOAD,2024-04-03 12:27:39,15.08840636,0.0001278,53.2168,284.7517,91.0439,269.07,0.00026348,3.908e-05,0.0,0 STARLINK-3577,1 51884U 22022AJ  24094.51921065  .00003908  00000-0  26348-3 0  9998,2 51884  53.2168 284.7517 0001278  91.0439 269.0700 15.08840636116879,6917.878,95.438,540.628,538.859,0.0
51884.0,STARLINK-3577,PAYLOAD,2024-04-03 21:59:59,15.08831885,0.0001261,53.2165,282.9679,93.2337,266.8799,0.00069478,0.00010784,0.0,0 STARLINK-3577,1 51884U 22022AJ  24094.91665735  .00010784  00000-0  69478-3 0  9992,2 51884  53.2165 282.9679 0001261  93.2337 266.8799 15.08831885116934,6917.905,95.438,540.643,538.898,0.0
51884.0,STARLINK-3577,PAYLOAD,2024-04-04 12:18:26,15.08847979,0.0001797,53.2161,280.291,90.4159,269.7039,0.00030094,4.506e-05,0.0,0 STARLINK-3577,1 51884U 22022AJ  24095.51280892  .00004506  00000-0  30094-3 0  9993,2 51884  53.2161 280.2910 0001797  90.4159 269.7039 15.08847979117025,6917.856,95.437,540.964,538.478,0.0
51884.0,STARLINK-3577,PAYLOAD,2024-04-04 18:39:59,15.08838791,0.0001302,53.217,279.1029,91.3915,268.7226,9.7164e-05,1.259e-05,0.0,0 STARLINK-3577,1 51884U 22022AJ  24095.77777181  .00001259  00000-0  97164-4 0  9997,2 51884  53.2170 279.1029 0001302  91.3915 268.7226 15.08838791117068,6917.884,95.438,540.65,538.848,0.0
51884.0,STARLINK-3577,PAYLOAD,2024-04-05 12:09:13,15.08839191,0.0001426,53.2177,275.8304,100.742,259.3733,0.0002727,4.055e-05,0.0,0 STARLINK-3577,1 51884U 22022AJ  24096.50641024  .00004055  00000-0  27270-3 0  9992,2 51884  53.2177 275.8304 0001426 100.7420 259.3733 15.08839191117173,6917.883,95.438,540.734,538.761,0.0
51884.0,STARLINK-3577,PAYLOAD,2024-04-05 18:30:46,15.08834433,0.0001385,53.2183,274.6421,94.5619,265.5532,0.0002338,3.434e-05,0.0,0 STARLINK-3577,1 51884U 22022AJ  24096.77137113  .00003434  00000-0  23380-3 0  9998,2 51884  53.2183 274.6421 0001385  94.5619 265.5532 15.08834433117216,6917.897,95.438,540.721,538.804,0.0
51884.0,STARLINK-3577,PAYLOAD,2024-04-06 18:21:33,15.08838458,0.0001398,53.2179,270.1805,96.9758,263.1393,6.9793e-05,8.23e-06,0.0,0 STARLINK-3577,1 51884U 22022AJ  24097.76496906  .00000823  00000-0  69793-4 0  9994,2 51884  53.2179 270.1805 0001398  96.9758 263.1393 15.08838458117368,6917.885,95.438,540.717,538.783,0.0
51884.0,STARLINK-3577,PAYLOAD,2024-04-06 21:32:19,15.08837734,0.0001383,53.218,269.5861,96.5687,263.5462,5.173e-05,5.35e-06,0.0,0 STARLINK-3577,1 51884U 22022AJ  24097.89744979  .00000535  00000-0  51730-4 0  9996,2 51884  53.2180 269.5861 0001383  96.5687 263.5462 15.08837734117384,6917.887,95.438,540.709,538.796,0.0
51884.0,STARLINK-3577,PAYLOAD,2024-04-07 10:15:25,15.08835644,0.0001378,53.2178,267.2066,94.8202,265.2947,3.3724e-05,2.49e-06,0.0,0 STARLINK-3577,1 51884U 22022AJ  24098.42737280  .00000249  00000-0  33724-4 0  9998,2 51884  53.2178 267.2066 0001378  94.8202 265.2947 15.08835644117465,6917.894,95.438,540.712,538.805,0.0
51884.0,STARLINK-3577,PAYLOAD,2024-04-07 18:12:20,15.08833275,0.0001526,53.2185,265.7217,97.8775,262.239,1.3965e-05,-6.6e-07,0.0,0 STARLINK-3577,1 51884U 22022AJ  24098.75857620 -.00000066  00000-0  13965-4 0  9998,2 51884  53.2185 265.7217 0001526  97.8775 262.2390 15.08833275117510,6917.901,95.438,540.822,538.71,0.0
51884.0,STARLINK-3577,PAYLOAD,2024-04-08 03:44:39,15.08840064,0.0001599,53.2202,263.9378,97.1718,262.9456,-4.1812e-05,-9.53e-06,0.0,0 STARLINK-3577,1 51884U 22022AJ  24099.15601446 -.00000953  00000-0 -41812-4 0  9994,2 51884  53.2202 263.9378 0001599  97.1718 262.9456 15.08840064117578,6917.88,95.438,540.851,538.639,0.0
51884.0,STARLINK-3577,PAYLOAD,2024-04-08 21:13:54,15.08826698,0.0001797,53.2197,260.6663,92.1665,267.9533,0.00028084,4.183e-05,0.0,0 STARLINK-3577,1 51884U 22022AJ  24099.88465797  .00004183  00000-0  28084-3 0  9993,2 51884  53.2197 260.6663 0001797  92.1665 267.9533 15.08826698117688,6917.921,95.438,541.029,538.543,0.0
51884.0,STARLINK-3577,PAYLOAD,2024-04-09 03:35:27,15.08826906,0.0001801,53.2198,259.4768,90.8801,269.2397,0.00028601,4.265e-05,0.0,0 STARLINK-3577,1 51884U 22022AJ  24100.14962030  .00004265  00000-0  28601-3 0  9993,2 51884  53.2198 259.4768 0001801  90.8801 269.2397 15.08826906117724,6917.92,95.438,541.031,538.539,0.0
51884.0,STARLINK-3577,PAYLOAD,2024-04-09 09:56:59,15.08838002,0.00018,53.2197,258.2876,91.4038,268.716,9.6236e-05,1.244e-05,0.0,0 STARLINK-3577,1 51884U 22022AJ  24100.41457744  .00001244  00000-0  96236-4 0  9998,2 51884  53.2197 258.2876 0001800  91.4038 268.7160 15.08838002117764,6917.886,95.438,540.997,538.506,0.0
51884.0,STARLINK-3577,PAYLOAD,2024-04-10 09:47:46,15.0884205,0.0001878,53.2168,253.827,89.4305,270.6902,8.6884e-05,1.095e-05,0.0,0 STARLINK-3577,1 51884U 22022AJ  24101.40817722  .00001095  00000-0  86884-4 0  9996,2 51884  53.2168 253.8270 0001878  89.4305 270.6902 15.08842050117911,6917.874,95.437,541.038,538.44,0.0
51884.0,STARLINK-3577,PAYLOAD,2024-04-10 17:44:42,15.08842957,0.0001234,53.2178,252.3401,77.403,282.71,8.6584e-05,1.09e-05,0.0,0 STARLINK-3577,1 51884U 22022AJ  24101.73937591  .00001090  00000-0  86584-4 0  9991,2 51884  53.2178 252.3401 0001234  77.4030 282.7100 15.08842957117965,6917.871,95.437,540.59,538.883,0.0
51884.0,STARLINK-3577,PAYLOAD,2024-04-11 03:17:00,15.0885072,0.0001084,53.221,250.5564,76.779,283.3323,0.00016106,2.277e-05,0.0,0 STARLINK-3577,1 51884U 22022AJ  24102.13680862  .00002277  00000-0  16106-3 0  9992,2 51884  53.2210 250.5564 0001084  76.7790 283.3323 15.08850720118029,6917.848,95.437,540.463,538.963,0.0
51884.0,STARLINK-3577,PAYLOAD,2024-04-11 09:38:33,15.08838038,0.0001601,53.2144,249.3655,84.1637,275.9538,2.2893e-05,7.6e-07,0.0,0 STARLINK-3577,1 51884U 22022AJ  24102.40177731  .00000076  00000-0  22893-4 0  9994,2 51884  53.2144 249.3655 0001601  84.1637 275.9538 15.08838038118067,6917.886,95.438,540.859,538.644,0.0
51884.0,STARLINK-3577,PAYLOAD,2024-04-11 14:24:43,15.08837018,0.0001642,53.2154,248.4725,88.7096,271.4084,5.0951e-05,5.23e-06,0.0,0 STARLINK-3577,1 51884U 22022AJ  24102.60050105  .00000523  00000-0  50951-4 0  9994,2 51884  53.2154 248.4725 0001642  88.7096 271.4084 15.08837018118097,6917.89,95.438,540.89,538.619,0.0
51884.0,STARLINK-3577,PAYLOAD,2024-04-11 16:00:06,15.08837296,0.0001611,53.2152,248.175,89.3264,270.7913,5.3024e-05,5.56e-06,0.0,0 STARLINK-3577,1 51884U 22022AJ  24102.66674080  .00000556  00000-0  53024-4 0  9994,2 51884  53.2152 248.1750 0001611  89.3264 270.7913 15.08837296118103,6917.889,95.438,540.868,538.639,0.0
51884.0,STARLINK-3577,PAYLOAD,2024-04-12 12:40:06,15.0884363,0.00015,53.2191,244.3087,95.3604,264.7559,2.0024e-05,3.1e-07,0.0,0 STARLINK-3577,1 51884U 22022AJ  24103.52785658  .00000031  00000-0  20024-4 0  9996,2 51884  53.2191 244.3087 0001500  95.3604 264.7559 15.08843630118231,6917.869,95.437,540.772,538.697,0.0
51884.0,STARLINK-3577,PAYLOAD,2024-04-12 14:15:30,15.08841101,0.0001482,53.2186,244.0115,94.7623,265.3538,-8.5219e-06,-4.24e-06,0.0,0 STARLINK-3577,1 51884U 22022AJ  24103.59409786 -.00000424  00000-0 -85219-5 0  9994,2 51884  53.2186 244.0115 0001482  94.7623 265.3538 15.08841101118243,6917.877,95.437,540.767,538.717,0.0
51884.0,STARLINK-3577,PAYLOAD,2024-04-13 12:30:54,15.08837055,0.0001619,53.2176,239.8479,103.5864,256.5309,0.00010035,1.309e-05,0.0,0 STARLINK-3577,1 51884U 22022AJ  24104.52146069  .00001309  00000-0  10035-3 0  9993,2 51884  53.2176 239.8479 0001619 103.5864 256.5309 15.08837055118381,6917.889,95.438,540.874,538.634,0.0
51884.0,STARLINK-3577,PAYLOAD,2024-04-13 14:06:17,15.08835751,0.0001595,53.2184,239.5507,102.7225,257.3945,8.5037e-05,1.065e-05,0.0,0 STARLINK-3577,1 51884U 22022AJ  24104.58770112  .00001065  00000-0  85037-4 0  9995,2 51884  53.2184 239.5507 0001595 102.7225 257.3945 15.08835751118391,6917.893,95.438,540.862,538.655,0.0
51884.0,STARLINK-3577,PAYLOAD,2024-04-13 15:41:40,15.08835875,0.0001607,53.2192,239.254,102.5484,257.5688,5.1803e-05,5.36e-06,0.0,0 STARLINK-3577,1 51884U 22022AJ  24104.65394191  .00000536  00000-0  51803-4 0  9998,2 51884  53.2192 239.2540 0001607 102.5484 257.5688 15.08835875118408,6917.893,95.438,540.87,538.646,0.0
51884.0,STARLINK-3577,PAYLOAD,2024-04-14 15:32:27,15.08842177,0.0001344,53.2178,234.7933,93.7812,266.3334,0.00010358,1.361e-05,0.0,0 STARLINK-3577,1 51884U 22022AJ  24105.64753904  .00001361  00000-0  10358-3 0  9995,2 51884  53.2178 234.7933 0001344  93.7812 266.3334 15.08842177118557,6917.874,95.437,540.668,538.809,0.0
51884.0,STARLINK-3577,PAYLOAD,2024-04-15 12:12:28,15.08837116,0.0001384,53.218,230.9276,102.2121,257.9027,0.00010028,1.308e-05,0.0,0 STARLINK-3577,1 51884U 22022AJ  24106.50866271  .00001308  00000-0  10028-3 0  9998,2 51884  53.2180 230.9276 0001384 102.2121 257.9027 15.08837116118687,6917.889,95.438,540.712,538.797,0.0
51884.0,STARLINK-3577,PAYLOAD,2024-04-15 13:47:51,15.08836396,0.0001361,53.2178,230.6299,102.1703,257.9441,8.8974e-05,1.128e-05,0.0,0 STARLINK-3577,1 51884U 22022AJ  24106.57490339  .00001128  00000-0  88974-4 0  9999,2 51884  53.2178 230.6299 0001361 102.1703 257.9441 15.08836396118696,6917.891,95.438,540.698,538.815,0.0
51884.0,STARLINK-3577,PAYLOAD,2024-04-16 13:38:38,15.08841224,0.0001971,53.2183,226.1733,84.4114,275.7102,4.604e-05,4.45e-06,0.0,0 STARLINK-3577,1 51884U 22022AJ  24107.56850053  .00000445  00000-0  46040-4 0  9991,2 51884  53.2183 226.1733 0001971  84.4114 275.7102 15.08841224118845,6917.877,95.437,541.105,538.378,0.0
